METHANESAT              
1 59101U 24043D   26065.91866898  .00004396  00000+0  38128-3 0  9999
2 59101  97.8287 196.5925 0010175   1.5464 358.5787 14.97559961109346
GOSAT-GW (IBUKI GW)     
1 64694U 25141A   26065.03170329  .00001220  00000+0  22342-3 0  9996
2 64694  98.0502   4.0681 0001432  83.7124 276.4243 14.67568283 36714
GHGSAT-C1               
1 46278U 20061G   26066.17170116  .00036306  00000+0  38127-3 0  9991
2 46278  97.2163 148.4680 0002254  83.3182 276.8334 15.64269406307495
GHGSAT-C12              
1 64529U 25135B   26066.13904885  .00005287  00000+0  25197-3 0  9998
2 64529  97.4622 181.9814 0005659 155.5958 204.5545 15.19525789 39327
GHGSAT-C13              
1 64548U 25135W   26066.12429758  .00004886  00000+0  22857-3 0  9993
2 64548  97.4648 182.3868 0002683 101.7963 258.3573 15.20219731 39342
GHGSAT-C2               
1 47509U 21006DA  26066.07733352  .00007868  00000+0  22327-3 0  9991
2 47509  97.2290 115.0979 0005812 158.5147 201.6342 15.36464152284161
GHGSAT-C3               
1 52737U 22057F   26066.19601286  .00010188  00000+0  32307-3 0  9998
2 52737  97.6428 208.2344 0007297 120.5576 239.6387 15.32881408209904
GHGSAT-C4               
1 52746U 22057Q   26066.15033873  .00010197  00000+0  32343-3 0  9995
2 52746  97.6355 207.1223 0007566 108.2750 251.9316 15.32870301209902
GHGSAT-C5               
1 52744U 22057N   26066.16818792  .00011366  00000+0  36020-3 0  9990
2 52744  97.6519 209.6604 0008208 118.1886 242.0186 15.32862363209901
GHGSAT-C6               
1 56204U 23054AC  26066.21774485  .00022139  00000+0  39841-3 0  9993
2 56204  97.3125 334.4911 0009504  60.8477 299.3724 15.49790718162647
GHGSAT-C7               
1 56209U 23054AH  26066.17845064  .00015400  00000+0  30029-3 0  9997
2 56209  97.3079 333.3883 0009742  55.7122 304.5049 15.47558835162605
GHGSAT-C8               
1 56186U 23054J   26066.18906394  .00018413  00000+0  33171-3 0  9994
2 56186  97.3090 333.8523 0007550  79.3009 280.9092 15.49817604162620
SENTINEL-5P             
1 42969U 17064A   26066.06715524  .00000103  00000+0  69819-4 0  9998
2 42969  98.7879   8.9465 0001090  80.9266 279.2034 14.19548317435072
ENMAP                   
1 52159U 22033C   26066.20359878  .00000779  00000+0  12342-3 0  9991
2 52159  97.9771 149.9021 0001020  94.0695 266.0630 14.74964965211626
PRISMA                  
1 44072U 19015A   26066.16878757  .00001350  00000+0  17006-3 0  9997
2 44072  97.8718 142.4296 0001449  87.7691 272.3689 14.83629912376922
SENTINEL-2A             
1 40697U 15028A   26056.18000490  .00000159  00000+0  76852-4 0  9999
2 40697  98.5024 132.8928 0054368 194.7437 165.2162 14.30192923557712
SENTINEL-2B             
1 42063U 17013A   26066.17951973  .00000123  00000+0  63741-4 0  9999
2 42063  98.5661 142.4096 0001097  95.3314 264.7994 14.30818913470055
SENTINEL-2C             
1 60989U 24157A   26066.14458487  .00000155  00000+0  75610-4 0  9995
2 60989  98.5682 142.3907 0000717  97.0657 263.0607 14.30812922 78390
LANDSAT 8               
1 39084U 13008A   26066.18831171  .00000450  00000+0  10986-3 0  9991
2 39084  98.1922 137.9549 0001215  92.0331 268.1006 14.57127918683041
LANDSAT 9               
1 49260U 21088A   26066.15411567  .00000479  00000+0  11637-3 0  9990
2 49260  98.1943 137.9813 0001148  91.1765 268.9565 14.57122088236147
TANAGER-1               
1 60507U 24149AR  26064.34973296  .00005482  00000+0  12407-3 0  9994
2 60507  97.3770 157.6642 0006725 235.9479 124.1131 15.43548696 87013
